{"type": "FeatureCollection", "features": [{"type": "Feature", "properties": {"name": "Panel A \u2014 Longwall Block 7", "panel_id": "PNL-A", "type": "panel_boundary", "grid_rows": 8, "grid_cols": 8}, "geometry": {"type": "Polygon", "coordinates": [[[79.56621436431955, 18.6385143729788], [79.57685159393262, 18.6385143729788], [79.57685159393262, 18.647488501616962], [79.56621436431955, 18.647488501616962], [79.56621436431955, 18.6385143729788]]]}}, {"type": "Feature", "properties": {"grid_id": "A1", "name": "Panel A \u2014 Sector A1", "panel_id": "PNL-A", "type": "grid_sector", "row": "A", "col": 1}, "geometry": {"type": "Polygon", "coordinates": [[[79.56621436431955, 18.646366735537192], [79.56754401802118, 18.646366735537192], [79.56754401802118, 18.647488501616962], [79.56621436431955, 18.647488501616962], [79.56621436431955, 18.646366735537192]]]}}, {"type": "Feature", "properties": {"grid_id": "A2", "name": "Panel A \u2014 Sector A2", "panel_id": "PNL-A", "type": "grid_sector", "row": "A", "col": 2}, "geometry": {"type": "Polygon", "coordinates": [[[79.56754401802118, 18.646366735537192], [79.56887367172281, 18.646366735537192], [79.56887367172281, 18.647488501616962], [79.56754401802118, 18.647488501616962], [79.56754401802118, 18.646366735537192]]]}}, {"type": "Feature", "properties": {"grid_id": "A3", "name": "Panel A \u2014 Sector A3", "panel_id": "PNL-A", "type": "grid_sector", "row": "A", "col": 3}, "geometry": {"type": "Polygon", "coordinates": [[[79.56887367172281, 18.646366735537192], [79.57020332542446, 18.646366735537192], [79.57020332542446, 18.647488501616962], [79.56887367172281, 18.647488501616962], [79.56887367172281, 18.646366735537192]]]}}, {"type": "Feature", "properties": {"grid_id": "A4", "name": "Panel A \u2014 Sector A4", "panel_id": "PNL-A", "type": "grid_sector", "row": "A", "col": 4}, "geometry": {"type": "Polygon", "coordinates": [[[79.57020332542446, 18.646366735537192], [79.57153297912609, 18.646366735537192], [79.57153297912609, 18.647488501616962], [79.57020332542446, 18.647488501616962], [79.57020332542446, 18.646366735537192]]]}}, {"type": "Feature", "properties": {"grid_id": "A5", "name": "Panel A \u2014 Sector A5", "panel_id": "PNL-A", "type": "grid_sector", "row": "A", "col": 5}, "geometry": {"type": "Polygon", "coordinates": [[[79.57153297912609, 18.646366735537192], [79.57286263282772, 18.646366735537192], [79.57286263282772, 18.647488501616962], [79.57153297912609, 18.647488501616962], [79.57153297912609, 18.646366735537192]]]}}, {"type": "Feature", "properties": {"grid_id": "A6", "name": "Panel A \u2014 Sector A6", "panel_id": "PNL-A", "type": "grid_sector", "row": "A", "col": 6}, "geometry": {"type": "Polygon", "coordinates": [[[79.57286263282772, 18.646366735537192], [79.57419228652935, 18.646366735537192], [79.57419228652935, 18.647488501616962], [79.57286263282772, 18.647488501616962], [79.57286263282772, 18.646366735537192]]]}}, {"type": "Feature", "properties": {"grid_id": "A7", "name": "Panel A \u2014 Sector A7", "panel_id": "PNL-A", "type": "grid_sector", "row": "A", "col": 7}, "geometry": {"type": "Polygon", "coordinates": [[[79.57419228652935, 18.646366735537192], [79.57552194023098, 18.646366735537192], [79.57552194023098, 18.647488501616962], [79.57419228652935, 18.647488501616962], [79.57419228652935, 18.646366735537192]]]}}, {"type": "Feature", "properties": {"grid_id": "A8", "name": "Panel A \u2014 Sector A8", "panel_id": "PNL-A", "type": "grid_sector", "row": "A", "col": 8}, "geometry": {"type": "Polygon", "coordinates": [[[79.57552194023098, 18.646366735537192], [79.57685159393262, 18.646366735537192], [79.57685159393262, 18.647488501616962], [79.57552194023098, 18.647488501616962], [79.57552194023098, 18.646366735537192]]]}}, {"type": "Feature", "properties": {"grid_id": "B1", "name": "Panel A \u2014 Sector B1", "panel_id": "PNL-A", "type": "grid_sector", "row": "B", "col": 1}, "geometry": {"type": "Polygon", "coordinates": [[[79.56621436431955, 18.64524496945742], [79.56754401802118, 18.64524496945742], [79.56754401802118, 18.646366735537192], [79.56621436431955, 18.646366735537192], [79.56621436431955, 18.64524496945742]]]}}, {"type": "Feature", "properties": {"grid_id": "B2", "name": "Panel A \u2014 Sector B2", "panel_id": "PNL-A", "type": "grid_sector", "row": "B", "col": 2}, "geometry": {"type": "Polygon", "coordinates": [[[79.56754401802118, 18.64524496945742], [79.56887367172281, 18.64524496945742], [79.56887367172281, 18.646366735537192], [79.56754401802118, 18.646366735537192], [79.56754401802118, 18.64524496945742]]]}}, {"type": "Feature", "properties": {"grid_id": "B3", "name": "Panel A \u2014 Sector B3", "panel_id": "PNL-A", "type": "grid_sector", "row": "B", "col": 3}, "geometry": {"type": "Polygon", "coordinates": [[[79.56887367172281, 18.64524496945742], [79.57020332542446, 18.64524496945742], [79.57020332542446, 18.646366735537192], [79.56887367172281, 18.646366735537192], [79.56887367172281, 18.64524496945742]]]}}, {"type": "Feature", "properties": {"grid_id": "B4", "name": "Panel A \u2014 Sector B4", "panel_id": "PNL-A", "type": "grid_sector", "row": "B", "col": 4}, "geometry": {"type": "Polygon", "coordinates": [[[79.57020332542446, 18.64524496945742], [79.57153297912609, 18.64524496945742], [79.57153297912609, 18.646366735537192], [79.57020332542446, 18.646366735537192], [79.57020332542446, 18.64524496945742]]]}}, {"type": "Feature", "properties": {"grid_id": "B5", "name": "Panel A \u2014 Sector B5", "panel_id": "PNL-A", "type": "grid_sector", "row": "B", "col": 5}, "geometry": {"type": "Polygon", "coordinates": [[[79.57153297912609, 18.64524496945742], [79.57286263282772, 18.64524496945742], [79.57286263282772, 18.646366735537192], [79.57153297912609, 18.646366735537192], [79.57153297912609, 18.64524496945742]]]}}, {"type": "Feature", "properties": {"grid_id": "B6", "name": "Panel A \u2014 Sector B6", "panel_id": "PNL-A", "type": "grid_sector", "row": "B", "col": 6}, "geometry": {"type": "Polygon", "coordinates": [[[79.57286263282772, 18.64524496945742], [79.57419228652935, 18.64524496945742], [79.57419228652935, 18.646366735537192], [79.57286263282772, 18.646366735537192], [79.57286263282772, 18.64524496945742]]]}}, {"type": "Feature", "properties": {"grid_id": "B7", "name": "Panel A \u2014 Sector B7", "panel_id": "PNL-A", "type": "grid_sector", "row": "B", "col": 7}, "geometry": {"type": "Polygon", "coordinates": [[[79.57419228652935, 18.64524496945742], [79.57552194023098, 18.64524496945742], [79.57552194023098, 18.646366735537192], [79.57419228652935, 18.646366735537192], [79.57419228652935, 18.64524496945742]]]}}, {"type": "Feature", "properties": {"grid_id": "B8", "name": "Panel A \u2014 Sector B8", "panel_id": "PNL-A", "type": "grid_sector", "row": "B", "col": 8}, "geometry": {"type": "Polygon", "coordinates": [[[79.57552194023098, 18.64524496945742], [79.57685159393262, 18.64524496945742], [79.57685159393262, 18.646366735537192], [79.57552194023098, 18.646366735537192], [79.57552194023098, 18.64524496945742]]]}}, {"type": "Feature", "properties": {"grid_id": "C1", "name": "Panel A \u2014 Sector C1", "panel_id": "PNL-A", "type": "grid_sector", "row": "C", "col": 1}, "geometry": {"type": "Polygon", "coordinates": [[[79.56621436431955, 18.644123203377653], [79.56754401802118, 18.644123203377653], [79.56754401802118, 18.64524496945742], [79.56621436431955, 18.64524496945742], [79.56621436431955, 18.644123203377653]]]}}, {"type": "Feature", "properties": {"grid_id": "C2", "name": "Panel A \u2014 Sector C2", "panel_id": "PNL-A", "type": "grid_sector", "row": "C", "col": 2}, "geometry": {"type": "Polygon", "coordinates": [[[79.56754401802118, 18.644123203377653], [79.56887367172281, 18.644123203377653], [79.56887367172281, 18.64524496945742], [79.56754401802118, 18.64524496945742], [79.56754401802118, 18.644123203377653]]]}}, {"type": "Feature", "properties": {"grid_id": "C3", "name": "Panel A \u2014 Sector C3", "panel_id": "PNL-A", "type": "grid_sector", "row": "C", "col": 3}, "geometry": {"type": "Polygon", "coordinates": [[[79.56887367172281, 18.644123203377653], [79.57020332542446, 18.644123203377653], [79.57020332542446, 18.64524496945742], [79.56887367172281, 18.64524496945742], [79.56887367172281, 18.644123203377653]]]}}, {"type": "Feature", "properties": {"grid_id": "C4", "name": "Panel A \u2014 Sector C4", "panel_id": "PNL-A", "type": "grid_sector", "row": "C", "col": 4}, "geometry": {"type": "Polygon", "coordinates": [[[79.57020332542446, 18.644123203377653], [79.57153297912609, 18.644123203377653], [79.57153297912609, 18.64524496945742], [79.57020332542446, 18.64524496945742], [79.57020332542446, 18.644123203377653]]]}}, {"type": "Feature", "properties": {"grid_id": "C5", "name": "Panel A \u2014 Sector C5", "panel_id": "PNL-A", "type": "grid_sector", "row": "C", "col": 5}, "geometry": {"type": "Polygon", "coordinates": [[[79.57153297912609, 18.644123203377653], [79.57286263282772, 18.644123203377653], [79.57286263282772, 18.64524496945742], [79.57153297912609, 18.64524496945742], [79.57153297912609, 18.644123203377653]]]}}, {"type": "Feature", "properties": {"grid_id": "C6", "name": "Panel A \u2014 Sector C6", "panel_id": "PNL-A", "type": "grid_sector", "row": "C", "col": 6}, "geometry": {"type": "Polygon", "coordinates": [[[79.57286263282772, 18.644123203377653], [79.57419228652935, 18.644123203377653], [79.57419228652935, 18.64524496945742], [79.57286263282772, 18.64524496945742], [79.57286263282772, 18.644123203377653]]]}}, {"type": "Feature", "properties": {"grid_id": "C7", "name": "Panel A \u2014 Sector C7", "panel_id": "PNL-A", "type": "grid_sector", "row": "C", "col": 7}, "geometry": {"type": "Polygon", "coordinates": [[[79.57419228652935, 18.644123203377653], [79.57552194023098, 18.644123203377653], [79.57552194023098, 18.64524496945742], [79.57419228652935, 18.64524496945742], [79.57419228652935, 18.644123203377653]]]}}, {"type": "Feature", "properties": {"grid_id": "C8", "name": "Panel A \u2014 Sector C8", "panel_id": "PNL-A", "type": "grid_sector", "row": "C", "col": 8}, "geometry": {"type": "Polygon", "coordinates": [[[79.57552194023098, 18.644123203377653], [79.57685159393262, 18.644123203377653], [79.57685159393262, 18.64524496945742], [79.57552194023098, 18.64524496945742], [79.57552194023098, 18.644123203377653]]]}}, {"type": "Feature", "properties": {"grid_id": "D1", "name": "Panel A \u2014 Sector D1", "panel_id": "PNL-A", "type": "grid_sector", "row": "D", "col": 1}, "geometry": {"type": "Polygon", "coordinates": [[[79.56621436431955, 18.64300143729788], [79.56754401802118, 18.64300143729788], [79.56754401802118, 18.644123203377653], [79.56621436431955, 18.644123203377653], [79.56621436431955, 18.64300143729788]]]}}, {"type": "Feature", "properties": {"grid_id": "D2", "name": "Panel A \u2014 Sector D2", "panel_id": "PNL-A", "type": "grid_sector", "row": "D", "col": 2}, "geometry": {"type": "Polygon", "coordinates": [[[79.56754401802118, 18.64300143729788], [79.56887367172281, 18.64300143729788], [79.56887367172281, 18.644123203377653], [79.56754401802118, 18.644123203377653], [79.56754401802118, 18.64300143729788]]]}}, {"type": "Feature", "properties": {"grid_id": "D3", "name": "Panel A \u2014 Sector D3", "panel_id": "PNL-A", "type": "grid_sector", "row": "D", "col": 3}, "geometry": {"type": "Polygon", "coordinates": [[[79.56887367172281, 18.64300143729788], [79.57020332542446, 18.64300143729788], [79.57020332542446, 18.644123203377653], [79.56887367172281, 18.644123203377653], [79.56887367172281, 18.64300143729788]]]}}, {"type": "Feature", "properties": {"grid_id": "D4", "name": "Panel A \u2014 Sector D4", "panel_id": "PNL-A", "type": "grid_sector", "row": "D", "col": 4}, "geometry": {"type": "Polygon", "coordinates": [[[79.57020332542446, 18.64300143729788], [79.57153297912609, 18.64300143729788], [79.57153297912609, 18.644123203377653], [79.57020332542446, 18.644123203377653], [79.57020332542446, 18.64300143729788]]]}}, {"type": "Feature", "properties": {"grid_id": "D5", "name": "Panel A \u2014 Sector D5", "panel_id": "PNL-A", "type": "grid_sector", "row": "D", "col": 5}, "geometry": {"type": "Polygon", "coordinates": [[[79.57153297912609, 18.64300143729788], [79.57286263282772, 18.64300143729788], [79.57286263282772, 18.644123203377653], [79.57153297912609, 18.644123203377653], [79.57153297912609, 18.64300143729788]]]}}, {"type": "Feature", "properties": {"grid_id": "D6", "name": "Panel A \u2014 Sector D6", "panel_id": "PNL-A", "type": "grid_sector", "row": "D", "col": 6}, "geometry": {"type": "Polygon", "coordinates": [[[79.57286263282772, 18.64300143729788], [79.57419228652935, 18.64300143729788], [79.57419228652935, 18.644123203377653], [79.57286263282772, 18.644123203377653], [79.57286263282772, 18.64300143729788]]]}}, {"type": "Feature", "properties": {"grid_id": "D7", "name": "Panel A \u2014 Sector D7", "panel_id": "PNL-A", "type": "grid_sector", "row": "D", "col": 7}, "geometry": {"type": "Polygon", "coordinates": [[[79.57419228652935, 18.64300143729788], [79.57552194023098, 18.64300143729788], [79.57552194023098, 18.644123203377653], [79.57419228652935, 18.644123203377653], [79.57419228652935, 18.64300143729788]]]}}, {"type": "Feature", "properties": {"grid_id": "D8", "name": "Panel A \u2014 Sector D8", "panel_id": "PNL-A", "type": "grid_sector", "row": "D", "col": 8}, "geometry": {"type": "Polygon", "coordinates": [[[79.57552194023098, 18.64300143729788], [79.57685159393262, 18.64300143729788], [79.57685159393262, 18.644123203377653], [79.57552194023098, 18.644123203377653], [79.57552194023098, 18.64300143729788]]]}}, {"type": "Feature", "properties": {"grid_id": "E1", "name": "Panel A \u2014 Sector E1", "panel_id": "PNL-A", "type": "grid_sector", "row": "E", "col": 1}, "geometry": {"type": "Polygon", "coordinates": [[[79.56621436431955, 18.641879671218113], [79.56754401802118, 18.641879671218113], [79.56754401802118, 18.64300143729788], [79.56621436431955, 18.64300143729788], [79.56621436431955, 18.641879671218113]]]}}, {"type": "Feature", "properties": {"grid_id": "E2", "name": "Panel A \u2014 Sector E2", "panel_id": "PNL-A", "type": "grid_sector", "row": "E", "col": 2}, "geometry": {"type": "Polygon", "coordinates": [[[79.56754401802118, 18.641879671218113], [79.56887367172281, 18.641879671218113], [79.56887367172281, 18.64300143729788], [79.56754401802118, 18.64300143729788], [79.56754401802118, 18.641879671218113]]]}}, {"type": "Feature", "properties": {"grid_id": "E3", "name": "Panel A \u2014 Sector E3", "panel_id": "PNL-A", "type": "grid_sector", "row": "E", "col": 3}, "geometry": {"type": "Polygon", "coordinates": [[[79.56887367172281, 18.641879671218113], [79.57020332542446, 18.641879671218113], [79.57020332542446, 18.64300143729788], [79.56887367172281, 18.64300143729788], [79.56887367172281, 18.641879671218113]]]}}, {"type": "Feature", "properties": {"grid_id": "E4", "name": "Panel A \u2014 Sector E4", "panel_id": "PNL-A", "type": "grid_sector", "row": "E", "col": 4}, "geometry": {"type": "Polygon", "coordinates": [[[79.57020332542446, 18.641879671218113], [79.57153297912609, 18.641879671218113], [79.57153297912609, 18.64300143729788], [79.57020332542446, 18.64300143729788], [79.57020332542446, 18.641879671218113]]]}}, {"type": "Feature", "properties": {"grid_id": "E5", "name": "Panel A \u2014 Sector E5", "panel_id": "PNL-A", "type": "grid_sector", "row": "E", "col": 5}, "geometry": {"type": "Polygon", "coordinates": [[[79.57153297912609, 18.641879671218113], [79.57286263282772, 18.641879671218113], [79.57286263282772, 18.64300143729788], [79.57153297912609, 18.64300143729788], [79.57153297912609, 18.641879671218113]]]}}, {"type": "Feature", "properties": {"grid_id": "E6", "name": "Panel A \u2014 Sector E6", "panel_id": "PNL-A", "type": "grid_sector", "row": "E", "col": 6}, "geometry": {"type": "Polygon", "coordinates": [[[79.57286263282772, 18.641879671218113], [79.57419228652935, 18.641879671218113], [79.57419228652935, 18.64300143729788], [79.57286263282772, 18.64300143729788], [79.57286263282772, 18.641879671218113]]]}}, {"type": "Feature", "properties": {"grid_id": "E7", "name": "Panel A \u2014 Sector E7", "panel_id": "PNL-A", "type": "grid_sector", "row": "E", "col": 7}, "geometry": {"type": "Polygon", "coordinates": [[[79.57419228652935, 18.641879671218113], [79.57552194023098, 18.641879671218113], [79.57552194023098, 18.64300143729788], [79.57419228652935, 18.64300143729788], [79.57419228652935, 18.641879671218113]]]}}, {"type": "Feature", "properties": {"grid_id": "E8", "name": "Panel A \u2014 Sector E8", "panel_id": "PNL-A", "type": "grid_sector", "row": "E", "col": 8}, "geometry": {"type": "Polygon", "coordinates": [[[79.57552194023098, 18.641879671218113], [79.57685159393262, 18.641879671218113], [79.57685159393262, 18.64300143729788], [79.57552194023098, 18.64300143729788], [79.57552194023098, 18.641879671218113]]]}}, {"type": "Feature", "properties": {"grid_id": "F1", "name": "Panel A \u2014 Sector F1", "panel_id": "PNL-A", "type": "grid_sector", "row": "F", "col": 1}, "geometry": {"type": "Polygon", "coordinates": [[[79.56621436431955, 18.64075790513834], [79.56754401802118, 18.64075790513834], [79.56754401802118, 18.641879671218113], [79.56621436431955, 18.641879671218113], [79.56621436431955, 18.64075790513834]]]}}, {"type": "Feature", "properties": {"grid_id": "F2", "name": "Panel A \u2014 Sector F2", "panel_id": "PNL-A", "type": "grid_sector", "row": "F", "col": 2}, "geometry": {"type": "Polygon", "coordinates": [[[79.56754401802118, 18.64075790513834], [79.56887367172281, 18.64075790513834], [79.56887367172281, 18.641879671218113], [79.56754401802118, 18.641879671218113], [79.56754401802118, 18.64075790513834]]]}}, {"type": "Feature", "properties": {"grid_id": "F3", "name": "Panel A \u2014 Sector F3", "panel_id": "PNL-A", "type": "grid_sector", "row": "F", "col": 3}, "geometry": {"type": "Polygon", "coordinates": [[[79.56887367172281, 18.64075790513834], [79.57020332542446, 18.64075790513834], [79.57020332542446, 18.641879671218113], [79.56887367172281, 18.641879671218113], [79.56887367172281, 18.64075790513834]]]}}, {"type": "Feature", "properties": {"grid_id": "F4", "name": "Panel A \u2014 Sector F4", "panel_id": "PNL-A", "type": "grid_sector", "row": "F", "col": 4}, "geometry": {"type": "Polygon", "coordinates": [[[79.57020332542446, 18.64075790513834], [79.57153297912609, 18.64075790513834], [79.57153297912609, 18.641879671218113], [79.57020332542446, 18.641879671218113], [79.57020332542446, 18.64075790513834]]]}}, {"type": "Feature", "properties": {"grid_id": "F5", "name": "Panel A \u2014 Sector F5", "panel_id": "PNL-A", "type": "grid_sector", "row": "F", "col": 5}, "geometry": {"type": "Polygon", "coordinates": [[[79.57153297912609, 18.64075790513834], [79.57286263282772, 18.64075790513834], [79.57286263282772, 18.641879671218113], [79.57153297912609, 18.641879671218113], [79.57153297912609, 18.64075790513834]]]}}, {"type": "Feature", "properties": {"grid_id": "F6", "name": "Panel A \u2014 Sector F6", "panel_id": "PNL-A", "type": "grid_sector", "row": "F", "col": 6}, "geometry": {"type": "Polygon", "coordinates": [[[79.57286263282772, 18.64075790513834], [79.57419228652935, 18.64075790513834], [79.57419228652935, 18.641879671218113], [79.57286263282772, 18.641879671218113], [79.57286263282772, 18.64075790513834]]]}}, {"type": "Feature", "properties": {"grid_id": "F7", "name": "Panel A \u2014 Sector F7", "panel_id": "PNL-A", "type": "grid_sector", "row": "F", "col": 7}, "geometry": {"type": "Polygon", "coordinates": [[[79.57419228652935, 18.64075790513834], [79.57552194023098, 18.64075790513834], [79.57552194023098, 18.641879671218113], [79.57419228652935, 18.641879671218113], [79.57419228652935, 18.64075790513834]]]}}, {"type": "Feature", "properties": {"grid_id": "F8", "name": "Panel A \u2014 Sector F8", "panel_id": "PNL-A", "type": "grid_sector", "row": "F", "col": 8}, "geometry": {"type": "Polygon", "coordinates": [[[79.57552194023098, 18.64075790513834], [79.57685159393262, 18.64075790513834], [79.57685159393262, 18.641879671218113], [79.57552194023098, 18.641879671218113], [79.57552194023098, 18.64075790513834]]]}}, {"type": "Feature", "properties": {"grid_id": "G1", "name": "Panel A \u2014 Sector G1", "panel_id": "PNL-A", "type": "grid_sector", "row": "G", "col": 1}, "geometry": {"type": "Polygon", "coordinates": [[[79.56621436431955, 18.639636139058574], [79.56754401802118, 18.639636139058574], [79.56754401802118, 18.64075790513834], [79.56621436431955, 18.64075790513834], [79.56621436431955, 18.639636139058574]]]}}, {"type": "Feature", "properties": {"grid_id": "G2", "name": "Panel A \u2014 Sector G2", "panel_id": "PNL-A", "type": "grid_sector", "row": "G", "col": 2}, "geometry": {"type": "Polygon", "coordinates": [[[79.56754401802118, 18.639636139058574], [79.56887367172281, 18.639636139058574], [79.56887367172281, 18.64075790513834], [79.56754401802118, 18.64075790513834], [79.56754401802118, 18.639636139058574]]]}}, {"type": "Feature", "properties": {"grid_id": "G3", "name": "Panel A \u2014 Sector G3", "panel_id": "PNL-A", "type": "grid_sector", "row": "G", "col": 3}, "geometry": {"type": "Polygon", "coordinates": [[[79.56887367172281, 18.639636139058574], [79.57020332542446, 18.639636139058574], [79.57020332542446, 18.64075790513834], [79.56887367172281, 18.64075790513834], [79.56887367172281, 18.639636139058574]]]}}, {"type": "Feature", "properties": {"grid_id": "G4", "name": "Panel A \u2014 Sector G4", "panel_id": "PNL-A", "type": "grid_sector", "row": "G", "col": 4}, "geometry": {"type": "Polygon", "coordinates": [[[79.57020332542446, 18.639636139058574], [79.57153297912609, 18.639636139058574], [79.57153297912609, 18.64075790513834], [79.57020332542446, 18.64075790513834], [79.57020332542446, 18.639636139058574]]]}}, {"type": "Feature", "properties": {"grid_id": "G5", "name": "Panel A \u2014 Sector G5", "panel_id": "PNL-A", "type": "grid_sector", "row": "G", "col": 5}, "geometry": {"type": "Polygon", "coordinates": [[[79.57153297912609, 18.639636139058574], [79.57286263282772, 18.639636139058574], [79.57286263282772, 18.64075790513834], [79.57153297912609, 18.64075790513834], [79.57153297912609, 18.639636139058574]]]}}, {"type": "Feature", "properties": {"grid_id": "G6", "name": "Panel A \u2014 Sector G6", "panel_id": "PNL-A", "type": "grid_sector", "row": "G", "col": 6}, "geometry": {"type": "Polygon", "coordinates": [[[79.57286263282772, 18.639636139058574], [79.57419228652935, 18.639636139058574], [79.57419228652935, 18.64075790513834], [79.57286263282772, 18.64075790513834], [79.57286263282772, 18.639636139058574]]]}}, {"type": "Feature", "properties": {"grid_id": "G7", "name": "Panel A \u2014 Sector G7", "panel_id": "PNL-A", "type": "grid_sector", "row": "G", "col": 7}, "geometry": {"type": "Polygon", "coordinates": [[[79.57419228652935, 18.639636139058574], [79.57552194023098, 18.639636139058574], [79.57552194023098, 18.64075790513834], [79.57419228652935, 18.64075790513834], [79.57419228652935, 18.639636139058574]]]}}, {"type": "Feature", "properties": {"grid_id": "G8", "name": "Panel A \u2014 Sector G8", "panel_id": "PNL-A", "type": "grid_sector", "row": "G", "col": 8}, "geometry": {"type": "Polygon", "coordinates": [[[79.57552194023098, 18.639636139058574], [79.57685159393262, 18.639636139058574], [79.57685159393262, 18.64075790513834], [79.57552194023098, 18.64075790513834], [79.57552194023098, 18.639636139058574]]]}}, {"type": "Feature", "properties": {"grid_id": "H1", "name": "Panel A \u2014 Sector H1", "panel_id": "PNL-A", "type": "grid_sector", "row": "H", "col": 1}, "geometry": {"type": "Polygon", "coordinates": [[[79.56621436431955, 18.6385143729788], [79.56754401802118, 18.6385143729788], [79.56754401802118, 18.639636139058574], [79.56621436431955, 18.639636139058574], [79.56621436431955, 18.6385143729788]]]}}, {"type": "Feature", "properties": {"grid_id": "H2", "name": "Panel A \u2014 Sector H2", "panel_id": "PNL-A", "type": "grid_sector", "row": "H", "col": 2}, "geometry": {"type": "Polygon", "coordinates": [[[79.56754401802118, 18.6385143729788], [79.56887367172281, 18.6385143729788], [79.56887367172281, 18.639636139058574], [79.56754401802118, 18.639636139058574], [79.56754401802118, 18.6385143729788]]]}}, {"type": "Feature", "properties": {"grid_id": "H3", "name": "Panel A \u2014 Sector H3", "panel_id": "PNL-A", "type": "grid_sector", "row": "H", "col": 3}, "geometry": {"type": "Polygon", "coordinates": [[[79.56887367172281, 18.6385143729788], [79.57020332542446, 18.6385143729788], [79.57020332542446, 18.639636139058574], [79.56887367172281, 18.639636139058574], [79.56887367172281, 18.6385143729788]]]}}, {"type": "Feature", "properties": {"grid_id": "H4", "name": "Panel A \u2014 Sector H4", "panel_id": "PNL-A", "type": "grid_sector", "row": "H", "col": 4}, "geometry": {"type": "Polygon", "coordinates": [[[79.57020332542446, 18.6385143729788], [79.57153297912609, 18.6385143729788], [79.57153297912609, 18.639636139058574], [79.57020332542446, 18.639636139058574], [79.57020332542446, 18.6385143729788]]]}}, {"type": "Feature", "properties": {"grid_id": "H5", "name": "Panel A \u2014 Sector H5", "panel_id": "PNL-A", "type": "grid_sector", "row": "H", "col": 5}, "geometry": {"type": "Polygon", "coordinates": [[[79.57153297912609, 18.6385143729788], [79.57286263282772, 18.6385143729788], [79.57286263282772, 18.639636139058574], [79.57153297912609, 18.639636139058574], [79.57153297912609, 18.6385143729788]]]}}, {"type": "Feature", "properties": {"grid_id": "H6", "name": "Panel A \u2014 Sector H6", "panel_id": "PNL-A", "type": "grid_sector", "row": "H", "col": 6}, "geometry": {"type": "Polygon", "coordinates": [[[79.57286263282772, 18.6385143729788], [79.57419228652935, 18.6385143729788], [79.57419228652935, 18.639636139058574], [79.57286263282772, 18.639636139058574], [79.57286263282772, 18.6385143729788]]]}}, {"type": "Feature", "properties": {"grid_id": "H7", "name": "Panel A \u2014 Sector H7", "panel_id": "PNL-A", "type": "grid_sector", "row": "H", "col": 7}, "geometry": {"type": "Polygon", "coordinates": [[[79.57419228652935, 18.6385143729788], [79.57552194023098, 18.6385143729788], [79.57552194023098, 18.639636139058574], [79.57419228652935, 18.639636139058574], [79.57419228652935, 18.6385143729788]]]}}, {"type": "Feature", "properties": {"grid_id": "H8", "name": "Panel A \u2014 Sector H8", "panel_id": "PNL-A", "type": "grid_sector", "row": "H", "col": 8}, "geometry": {"type": "Polygon", "coordinates": [[[79.57552194023098, 18.6385143729788], [79.57685159393262, 18.6385143729788], [79.57685159393262, 18.639636139058574], [79.57552194023098, 18.639636139058574], [79.57552194023098, 18.6385143729788]]]}}]}