{"type": "FeatureCollection", "features": [{"type": "Feature", "properties": {"zone_type": "high_confidence", "label": "HIGH CONFIDENCE"}, "geometry": {"type": "Polygon", "coordinates": [[[79.56959893737826, 18.64150574919152], [79.57298351043697, 18.64150574919152], [79.57298351043697, 18.643998562702123], [79.56959893737826, 18.643998562702123], [79.56959893737826, 18.64150574919152]]]}}, {"type": "Feature", "properties": {"zone_type": "low_confidence", "label": "LOW CONFIDENCE"}, "geometry": {"type": "Polygon", "coordinates": [[[79.56863191650433, 18.640807761408553], [79.57395053131087, 18.640807761408553], [79.57395053131087, 18.644796263025512], [79.56863191650433, 18.644796263025512], [79.56863191650433, 18.640807761408553]]]}}, {"type": "Feature", "properties": {"zone_type": "brittle_failure", "label": "BRITTLE FAILURE ZONE"}, "geometry": {"type": "Polygon", "coordinates": [[[79.57056595825216, 18.64200431189364], [79.5725, 18.64200431189364], [79.5725, 18.6435], [79.57056595825216, 18.6435], [79.57056595825216, 18.64200431189364]]]}}]}